ONEWEB-0207             
1 48242U 21031AJ  24293.73733279 -.00000547  00000+0 -15093-2 0  9995
2 48242  87.9009  50.0796 0001494 100.0247 260.1052 13.14502039168755
ONEWEB-0208             
1 48243U 21031AK  24293.56687020  .00000066  00000+0  14245-3 0  9992
2 48243  87.9010  50.1282 0001679  93.6393 266.4929 13.14504246168746
ONEWEB-0200             
1 48244U 21031AL  24293.60651483  .00000029  00000+0  44716-4 0  9998
2 48244  87.9011  50.1165 0001792  92.2244 267.9091 13.14501448168684
ONEWEB-0217             
1 48245U 21031AM  24293.39401588  .00000270  00000+0  69327-3 0  9996
2 48245  87.9008  50.1429 0001853  88.8751 271.2591 13.14501379168592
ONEWEB-0211             
1 48767U 21045A   24293.52657867  .00000125  00000+0  29746-3 0  9998
2 48767  87.9125  19.7220 0002031  99.4696 260.6664 13.15546386164784
ONEWEB-0223             
1 48768U 21045B   24293.47272153  .00000190  00000+0  47050-3 0  9994
2 48768  87.9128  19.7436 0002422  99.0940 261.0465 13.15550484164765
ONEWEB-0230             
1 48769U 21045C   24293.52023704  .00000053  00000+0  10572-3 0  9994
2 48769  87.9127  19.8037 0001934 104.6035 255.5310 13.15547687165037
ONEWEB-0237             
1 48770U 21045D   24293.28097647  .00000026  00000+0  33940-4 0  9991
2 48770  87.9131  19.7895 0002244 100.0385 260.0999 13.15547810164725
